NORAD_CAT_ID,OBJECT_NAME,OBJECT_TYPE,EPOCH,MEAN_MOTION,ECCENTRICITY,INCLINATION,RA_OF_ASC_NODE,ARG_OF_PERICENTER,MEAN_ANOMALY,BSTAR,MEAN_MOTION_DOT,MEAN_MOTION_DDOT,TLE_LINE0,TLE_LINE1,TLE_LINE2,SEMIMAJOR_AXIS,PERIOD,APOGEE,PERIGEE,DECAYED
55915.0,STARLINK-5859,PAYLOAD,2023-12-09 01:25:39,14.98336175,0.0002571,69.999,216.127,270.5722,89.5143,0.00010938,1.213e-05,0.0,0 STARLINK-5859,1 55915U 23037B   23343.05948442  .00001213  00000-0  10938-3 0  9992,2 55915  69.9990 216.1270 0002571 270.5722  89.5143 14.98336175 40751,6950.174,96.107,573.826,570.252,0.0
55915.0,STARLINK-5859,PAYLOAD,2023-12-10 19:05:08,14.98377861,0.0001624,69.9973,211.7501,219.4073,140.6968,-0.00071017,-8.566e-05,0.0,0 STARLINK-5859,1 55915U 23037B   23344.79524143 -.00008566  00000-0 -71017-3 0  9997,2 55915  69.9973 211.7501 0001624 219.4073 140.6968 14.98377861 41010,6950.045,96.104,573.039,570.781,0.0
55915.0,STARLINK-5859,PAYLOAD,2023-12-10 22:17:26,14.98366789,0.0002512,69.9994,211.4151,196.6851,163.4225,-0.0012151,-0.00014575,0.0,0 STARLINK-5859,1 55915U 23037B   23344.92878197 -.00014575  00000-0 -12151-2 0  9993,2 55915  69.9994 211.4151 0002512 196.6851 163.4225 14.98366789 41384,6950.079,96.105,573.69,570.198,0.0
55915.0,STARLINK-5859,PAYLOAD,2023-12-11 01:29:40,14.98363665,0.000252,69.9976,211.0773,255.9812,104.1067,-0.00053518,-6.478e-05,0.0,0 STARLINK-5859,1 55915U 23037B   23345.06227895 -.00006478  00000-0 -53518-3 0  9998,2 55915  69.9976 211.0773 0002520 255.9812 104.1067 14.98363665 41055,6950.089,96.105,573.705,570.202,0.0
55915.0,STARLINK-5859,PAYLOAD,2023-12-11 19:07:10,14.98331196,0.0002398,69.998,209.2251,260.7871,99.3017,1.583e-05,9.6e-07,0.0,0 STARLINK-5859,1 55915U 23037B   23345.79664645  .00000096  00000-0  15830-4 0  9990,2 55915  69.9980 209.2251 0002398 260.7871  99.3017 14.98331196 41168,6950.189,96.107,573.721,570.388,0.0
55915.0,STARLINK-5859,PAYLOAD,2023-12-11 22:19:26,14.98331011,0.0002426,69.9982,208.8905,252.5586,107.5308,4.4089e-06,-4e-07,0.0,0 STARLINK-5859,1 55915U 23037B   23345.93016659 -.00000040  00000-0  44089-5 0  9991,2 55915  69.9982 208.8905 0002426 252.5586 107.5308 14.98331011 41537,6950.19,96.107,573.741,570.369,0.0
55915.0,STARLINK-5859,PAYLOAD,2023-12-12 01:31:40,14.98351826,0.00025,69.9979,208.553,265.1651,94.9223,0.00024196,2.797e-05,0.0,0 STARLINK-5859,1 55915U 23037B   23346.06366775  .00002797  00000-0  24196-3 0  9998,2 55915  69.9979 208.5530 0002500 265.1651  94.9223 14.98351826 41205,6950.125,96.106,573.728,570.253,0.0
55915.0,STARLINK-5859,PAYLOAD,2023-12-12 19:09:09,14.98332141,0.0003255,69.9971,206.7008,270.976,89.1026,-7.0471e-05,-9.34e-06,0.0,0 STARLINK-5859,1 55915U 23037B   23346.79803074 -.00000934  00000-0 -70471-4 0  9997,2 55915  69.9971 206.7008 0003255 270.9760  89.1026 14.98332141 41318,6950.186,96.107,574.314,569.789,0.0
55915.0,STARLINK-5859,PAYLOAD,2023-12-12 22:21:26,14.98326457,0.0002885,69.9976,206.3633,264.0421,96.0409,-0.00010713,-1.371e-05,0.0,0 STARLINK-5859,1 55915U 23037B   23346.93155488 -.00001371  00000-0 -10713-3 0  9990,2 55915  69.9976 206.3633 0002885 264.0421  96.0409 14.98326457 41684,6950.204,96.107,574.074,570.064,0.0
55915.0,STARLINK-5859,PAYLOAD,2023-12-12 23:57:34,14.98326005,0.0002894,69.9976,206.1949,264.8412,95.2417,-0.00011056,-1.412e-05,0.0,0 STARLINK-5859,1 55915U 23037B   23346.99831514 -.00001412  00000-0 -11056-3 0  9994,2 55915  69.9976 206.1949 0002894 264.8412  95.2417 14.98326005 41342,6950.205,96.107,574.082,570.059,0.0
55915.0,STARLINK-5859,PAYLOAD,2023-12-13 22:23:27,14.98326917,0.0002724,69.9979,203.8381,264.8662,95.2186,-0.00011281,-1.439e-05,0.0,0 STARLINK-5859,1 55915U 23037B   23347.93295494 -.00001439  00000-0 -11281-3 0  9999,2 55915  69.9979 203.8381 0002724 264.8662  95.2186 14.98326917 41837,6950.202,96.107,573.961,570.174,0.0
55915.0,STARLINK-5859,PAYLOAD,2023-12-13 23:59:35,14.98327073,0.0002708,69.998,203.67,263.7995,96.2856,-0.0001086,-1.388e-05,0.0,0 STARLINK-5859,1 55915U 23037B   23347.99971455 -.00001388  00000-0 -10860-3 0  9998,2 55915  69.9980 203.6700 0002708 263.7995  96.2856 14.98327073 41492,6950.202,96.107,573.949,570.185,0.0
55915.0,STARLINK-5859,PAYLOAD,2023-12-14 22:25:28,14.9831436,0.0002812,69.9981,201.3133,261.668,98.416,1.3475e-05,6.8e-07,0.0,0 STARLINK-5859,1 55915U 23037B   23348.93435675  .00000068  00000-0  13475-4 0  9990,2 55915  69.9981 201.3133 0002812 261.6680  98.4160 14.98314360 41983,6950.241,96.108,574.061,570.152,0.0
55915.0,STARLINK-5859,PAYLOAD,2023-12-15 00:01:36,14.98315809,0.0002905,69.9979,201.1449,263.8242,96.2586,2.6383e-05,2.22e-06,0.0,0 STARLINK-5859,1 55915U 23037B   23349.00111608  .00000222  00000-0  26383-4 0  9990,2 55915  69.9979 201.1449 0002905 263.8242  96.2586 14.98315809 41649,6950.237,96.108,574.121,570.083,0.0
55915.0,STARLINK-5859,PAYLOAD,2023-12-15 14:26:49,14.9831337,0.0003047,69.9981,199.6303,270.4785,89.6025,1.814e-05,1.23e-06,0.0,0 STARLINK-5859,1 55915U 23037B   23349.60196368  .00000123  00000-0  18140-4 0  9994,2 55915  69.9981 199.6303 0003047 270.4785  89.6025 14.98313370 42080,6950.244,96.108,574.227,569.992,0.0
55915.0,STARLINK-5859,PAYLOAD,2023-12-15 22:27:30,14.98314042,0.0002957,69.9981,198.7879,269.4082,90.6738,4.1184e-05,3.98e-06,0.0,0 STARLINK-5859,1 55915U 23037B   23349.93576595  .00000398  00000-0  41184-4 0  9992,2 55915  69.9981 198.7879 0002957 269.4082  90.6738 14.98314042 42131,6950.242,96.108,574.162,570.052,0.0
55915.0,STARLINK-5859,PAYLOAD,2023-12-16 00:03:38,14.98315466,0.0003068,69.9981,198.6201,271.4885,88.5922,4.2238e-05,4.11e-06,0.0,0 STARLINK-5859,1 55915U 23037B   23350.00252559  .00000411  00000-0  42238-4 0  9990,2 55915  69.9981 198.6201 0003068 271.4885  88.5922 14.98315466 41790,6950.238,96.108,574.235,569.971,0.0
55915.0,STARLINK-5859,PAYLOAD,2023-12-16 14:28:50,14.98320247,0.0002975,69.9982,197.105,272.1101,87.9718,3.6016e-05,3.37e-06,0.0,0 STARLINK-5859,1 55915U 23037B   23350.60336711  .00000337  00000-0  36016-4 0  9993,2 55915  69.9982 197.1050 0002975 272.1101  87.9718 14.98320247 42231,6950.223,96.108,574.156,570.02,0.0
55915.0,STARLINK-5859,PAYLOAD,2023-12-16 22:29:31,14.9832269,0.0002971,69.9982,196.2633,271.5425,88.5393,5.7461e-05,5.93e-06,0.0,0 STARLINK-5859,1 55915U 23037B   23350.93716681  .00000593  00000-0  57461-4 0  9998,2 55915  69.9982 196.2633 0002971 271.5425  88.5393 14.98322690 42281,6950.215,96.107,574.145,570.016,0.0
55915.0,STARLINK-5859,PAYLOAD,2023-12-17 00:05:39,14.98323289,0.0002964,69.9982,196.0951,271.1805,88.9014,6.2716e-05,6.55e-06,0.0,0 STARLINK-5859,1 55915U 23037B   23351.00392660  .00000655  00000-0  62716-4 0  9992,2 55915  69.9982 196.0951 0002964 271.1805  88.9014 14.98323289 41943,6950.214,96.107,574.139,570.019,0.0
55915.0,STARLINK-5859,PAYLOAD,2023-12-17 14:30:51,14.98325516,0.0002959,69.9983,194.5799,269.3496,90.7324,8.0314e-05,8.65e-06,0.0,0 STARLINK-5859,1 55915U 23037B   23351.60476689  .00000865  00000-0  80314-4 0  9999,2 55915  69.9983 194.5799 0002959 269.3496  90.7324 14.98325516 42385,6950.207,96.107,574.128,570.015,0.0
55915.0,STARLINK-5859,PAYLOAD,2023-12-17 22:31:31,14.9832958,0.0002877,69.9983,193.7384,267.6449,92.438,0.00012109,1.352e-05,0.0,0 STARLINK-5859,1 55915U 23037B   23351.93856375  .00001352  00000-0  12109-3 0  9997,2 55915  69.9983 193.7384 0002877 267.6449  92.4380 14.98329580 42436,6950.194,96.107,574.059,570.06,0.0
55915.0,STARLINK-5859,PAYLOAD,2023-12-18 00:07:39,14.98330342,0.0002866,69.9983,193.5703,266.1626,93.9205,0.00012665,1.418e-05,0.0,0 STARLINK-5859,1 55915U 23037B   23352.00532304  .00001418  00000-0  12665-3 0  9999,2 55915  69.9983 193.5703 0002866 266.1626  93.9205 14.98330342 42090,6950.192,96.107,574.049,570.065,0.0
55915.0,STARLINK-5859,PAYLOAD,2023-12-18 14:32:52,14.9833277,0.0002783,69.9984,192.0557,263.1554,96.9288,6.4859e-05,6.81e-06,0.0,0 STARLINK-5859,1 55915U 23037B   23352.60616252  .00000681  00000-0  64859-4 0  9994,2 55915  69.9984 192.0557 0002783 263.1554  96.9288 14.98332770 42537,6950.184,96.107,573.984,570.115,0.0
55915.0,STARLINK-5859,PAYLOAD,2023-12-18 22:33:32,14.98333139,0.0002822,69.9984,191.2139,269.7334,90.3501,6.0625e-05,6.3e-06,0.0,0 STARLINK-5859,1 55915U 23037B   23352.93996195  .00000630  00000-0  60625-4 0  9998,2 55915  69.9984 191.2139 0002822 269.7334  90.3501 14.98333139 42587,6950.183,96.107,574.01,570.087,0.0
55915.0,STARLINK-5859,PAYLOAD,2023-12-19 14:34:53,14.98331093,0.0002833,69.9985,189.5312,265.6034,94.4802,-3.9301e-05,-5.62e-06,0.0,0 STARLINK-5859,1 55915U 23037B   23353.60756471 -.00000562  00000-0 -39301-4 0  9997,2 55915  69.9985 189.5312 0002833 265.6034  94.4802 14.98331093 42682,6950.19,96.107,574.023,570.086,0.0
55915.0,STARLINK-5859,PAYLOAD,2023-12-19 19:23:17,14.98329959,0.0002952,69.9981,189.0251,271.0443,89.0378,-2.6987e-05,-4.15e-06,0.0,0 STARLINK-5859,1 55915U 23037B   23353.80784488 -.00000415  00000-0 -26987-4 0  9991,2 55915  69.9981 189.0251 0002952 271.0443  89.0378 14.98329959 42363,6950.193,96.107,574.11,570.006,0.0
55915.0,STARLINK-5859,PAYLOAD,2023-12-19 22:35:34,14.98327672,0.0002828,69.9986,188.6893,268.759,91.3245,-4.6882e-05,-6.52e-06,0.0,0 STARLINK-5859,1 55915U 23037B   23353.94136702 -.00000652  00000-0 -46882-4 0  9995,2 55915  69.9986 188.6893 0002828 268.7590  91.3245 14.98327672 42733,6950.2,96.107,574.031,570.1,0.0
55915.0,STARLINK-5859,PAYLOAD,2023-12-20 19:25:18,14.98332363,0.0002947,69.9982,186.5005,269.7449,90.3372,-4.4498e-05,-6.24e-06,0.0,0 STARLINK-5859,1 55915U 23037B   23354.80924258 -.00000624  00000-0 -44498-4 0  9992,2 55915  69.9982 186.5005 0002947 269.7449  90.3372 14.98332363 42516,6950.186,96.107,574.099,570.002,0.0
55915.0,STARLINK-5859,PAYLOAD,2023-12-20 22:37:34,14.98333633,0.0002923,69.9983,186.1641,268.8691,91.2133,-2.783e-05,-4.25e-06,0.0,0 STARLINK-5859,1 55915U 23037B   23354.94276105 -.00000425  00000-0 -27830-4 0  9998,2 55915  69.9983 186.1641 0002923 268.8691  91.2133 14.98333633 42888,6950.182,96.107,574.078,570.015,0.0
